[
    {
        "OBJECT_NAME": "GSAT0212 (GALILEO 16)",
        "OBJECT_ID": "2016-069B",
        "EPOCH": "2026-07-21T04:58:48.525312",
        "MEAN_MOTION": 1.70473851,
        "ECCENTRICITY": 0.00044069,
        "INCLINATION": 55.5158,
        "RA_OF_ASC_NODE": 100.1394,
        "ARG_OF_PERICENTER": 15.8741,
        "MEAN_ANOMALY": 344.175,
        "EPHEMERIS_TYPE": 0,
        "CLASSIFICATION_TYPE": "U",
        "NORAD_CAT_ID": 41860,
        "ELEMENT_SET_NO": 999,
        "REV_AT_EPOCH": 6023,
        "BSTAR": 0,
        "MEAN_MOTION_DOT": -4.6e-07,
        "MEAN_MOTION_DDOT": 0
    },
    {
        "OBJECT_NAME": "GSAT0213 (GALILEO 17)",
        "OBJECT_ID": "2016-069C",
        "EPOCH": "2026-07-22T03:52:09.801984",
        "MEAN_MOTION": 1.70474392,
        "ECCENTRICITY": 0.00038148,
        "INCLINATION": 55.5184,
        "RA_OF_ASC_NODE": 100.1209,
        "ARG_OF_PERICENTER": 320.5981,
        "MEAN_ANOMALY": 39.408,
        "EPHEMERIS_TYPE": 0,
        "CLASSIFICATION_TYPE": "U",
        "NORAD_CAT_ID": 41861,
        "ELEMENT_SET_NO": 999,
        "REV_AT_EPOCH": 6011,
        "BSTAR": 0,
        "MEAN_MOTION_DOT": -4.8e-07,
        "MEAN_MOTION_DDOT": 0
    },
    {
        "OBJECT_NAME": "GSAT0214 (GALILEO 18)",
        "OBJECT_ID": "2016-069D",
        "EPOCH": "2026-07-21T03:13:28.463808",
        "MEAN_MOTION": 1.70473784,
        "ECCENTRICITY": 0.00031418,
        "INCLINATION": 55.5164,
        "RA_OF_ASC_NODE": 100.142,
        "ARG_OF_PERICENTER": 335.1519,
        "MEAN_ANOMALY": 24.8684,
        "EPHEMERIS_TYPE": 0,
        "CLASSIFICATION_TYPE": "U",
        "NORAD_CAT_ID": 41862,
        "ELEMENT_SET_NO": 999,
        "REV_AT_EPOCH": 6022,
        "BSTAR": 0,
        "MEAN_MOTION_DOT": -4.5e-07,
        "MEAN_MOTION_DDOT": 0
    },
    {
        "OBJECT_NAME": "GSAT0215 (GALILEO 19)",
        "OBJECT_ID": "2017-079A",
        "EPOCH": "2026-07-21T14:58:16.716576",
        "MEAN_MOTION": 1.70474444,
        "ECCENTRICITY": 0.00037652,
        "INCLINATION": 55.0665,
        "RA_OF_ASC_NODE": 220.5584,
        "ARG_OF_PERICENTER": 269.3113,
        "MEAN_ANOMALY": 90.6885,
        "EPHEMERIS_TYPE": 0,
        "CLASSIFICATION_TYPE": "U",
        "NORAD_CAT_ID": 43055,
        "ELEMENT_SET_NO": 999,
        "REV_AT_EPOCH": 5357,
        "BSTAR": 0,
        "MEAN_MOTION_DOT": 6.7e-07,
        "MEAN_MOTION_DDOT": 0
    },
    {
        "OBJECT_NAME": "GSAT0216 (GALILEO 20)",
        "OBJECT_ID": "2017-079B",
        "EPOCH": "2026-07-20T03:43:27.887232",
        "MEAN_MOTION": 1.70474538,
        "ECCENTRICITY": 0.00049348,
        "INCLINATION": 55.0668,
        "RA_OF_ASC_NODE": 220.5989,
        "ARG_OF_PERICENTER": 278.3287,
        "MEAN_ANOMALY": 81.6543,
        "EPHEMERIS_TYPE": 0,
        "CLASSIFICATION_TYPE": "U",
        "NORAD_CAT_ID": 43056,
        "ELEMENT_SET_NO": 999,
        "REV_AT_EPOCH": 5356,
        "BSTAR": 0,
        "MEAN_MOTION_DOT": 5.7e-07,
        "MEAN_MOTION_DDOT": 0
    },
    {
        "OBJECT_NAME": "GSAT0217 (GALILEO 21)",
        "OBJECT_ID": "2017-079C",
        "EPOCH": "2026-07-20T23:06:06.568992",
        "MEAN_MOTION": 1.70474474,
        "ECCENTRICITY": 0.00042597,
        "INCLINATION": 55.0652,
        "RA_OF_ASC_NODE": 220.5745,
        "ARG_OF_PERICENTER": 292.946,
        "MEAN_ANOMALY": 67.0499,
        "EPHEMERIS_TYPE": 0,
        "CLASSIFICATION_TYPE": "U",
        "NORAD_CAT_ID": 43057,
        "ELEMENT_SET_NO": 999,
        "REV_AT_EPOCH": 5356,
        "BSTAR": 0,
        "MEAN_MOTION_DOT": 6.2e-07,
        "MEAN_MOTION_DDOT": 0
    },
    {
        "OBJECT_NAME": "GSAT0218 (GALILEO 22)",
        "OBJECT_ID": "2017-079D",
        "EPOCH": "2026-07-21T04:23:01.398912",
        "MEAN_MOTION": 1.70474478,
        "ECCENTRICITY": 0.00054155,
        "INCLINATION": 55.0651,
        "RA_OF_ASC_NODE": 220.5659,
        "ARG_OF_PERICENTER": 275.2147,
        "MEAN_ANOMALY": 84.765,
        "EPHEMERIS_TYPE": 0,
        "CLASSIFICATION_TYPE": "U",
        "NORAD_CAT_ID": 43058,
        "ELEMENT_SET_NO": 999,
        "REV_AT_EPOCH": 5359,
        "BSTAR": 0,
        "MEAN_MOTION_DOT": 6.4e-07,
        "MEAN_MOTION_DDOT": 0
    },
    {
        "OBJECT_NAME": "GSAT0221 (GALILEO 25)",
        "OBJECT_ID": "2018-060A",
        "EPOCH": "2026-07-17T13:36:55.120032",
        "MEAN_MOTION": 1.70476136,
        "ECCENTRICITY": 0.00027013,
        "INCLINATION": 57.1585,
        "RA_OF_ASC_NODE": 340.9609,
        "ARG_OF_PERICENTER": 283.6812,
        "MEAN_ANOMALY": 76.2771,
        "EPHEMERIS_TYPE": 0,
        "CLASSIFICATION_TYPE": "U",
        "NORAD_CAT_ID": 43564,
        "ELEMENT_SET_NO": 999,
        "REV_AT_EPOCH": 4968,
        "BSTAR": 0,
        "MEAN_MOTION_DOT": -1.04e-06,
        "MEAN_MOTION_DDOT": 0
    },
    {
        "OBJECT_NAME": "GSAT0222 (GALILEO 26)",
        "OBJECT_ID": "2018-060B",
        "EPOCH": "2026-07-21T21:26:04.045632",
        "MEAN_MOTION": 1.70476084,
        "ECCENTRICITY": 0.00030361,
        "INCLINATION": 57.1601,
        "RA_OF_ASC_NODE": 340.8479,
        "ARG_OF_PERICENTER": 234.2214,
        "MEAN_ANOMALY": 125.7449,
        "EPHEMERIS_TYPE": 0,
        "CLASSIFICATION_TYPE": "U",
        "NORAD_CAT_ID": 43565,
        "ELEMENT_SET_NO": 999,
        "REV_AT_EPOCH": 4980,
        "BSTAR": 0,
        "MEAN_MOTION_DOT": -1.07e-06,
        "MEAN_MOTION_DDOT": 0
    },
    {
        "OBJECT_NAME": "GSAT0219 (GALILEO 23)",
        "OBJECT_ID": "2018-060C",
        "EPOCH": "2026-07-22T02:44:05.076960",
        "MEAN_MOTION": 1.70476312,
        "ECCENTRICITY": 0.00019021,
        "INCLINATION": 57.1594,
        "RA_OF_ASC_NODE": 340.8434,
        "ARG_OF_PERICENTER": 291.708,
        "MEAN_ANOMALY": 68.2662,
        "EPHEMERIS_TYPE": 0,
        "CLASSIFICATION_TYPE": "U",
        "NORAD_CAT_ID": 43566,
        "ELEMENT_SET_NO": 999,
        "REV_AT_EPOCH": 4978,
        "BSTAR": 0,
        "MEAN_MOTION_DOT": -1.07e-06,
        "MEAN_MOTION_DDOT": 0
    },
    {
        "OBJECT_NAME": "GSAT0220 (GALILEO 24)",
        "OBJECT_ID": "2018-060D",
        "EPOCH": "2026-07-19T23:43:37.727904",
        "MEAN_MOTION": 1.70476103,
        "ECCENTRICITY": 0.00021108,
        "INCLINATION": 57.1597,
        "RA_OF_ASC_NODE": 340.9001,
        "ARG_OF_PERICENTER": 284.4251,
        "MEAN_ANOMALY": 75.5444,
        "EPHEMERIS_TYPE": 0,
        "CLASSIFICATION_TYPE": "U",
        "NORAD_CAT_ID": 43567,
        "ELEMENT_SET_NO": 999,
        "REV_AT_EPOCH": 4973,
        "BSTAR": 0,
        "MEAN_MOTION_DOT": -1.07e-06,
        "MEAN_MOTION_DDOT": 0
    },
    {
        "OBJECT_NAME": "GSAT0223 (GALILEO 27)",
        "OBJECT_ID": "2021-116A",
        "EPOCH": "2026-07-22T11:33:56.236896",
        "MEAN_MOTION": 1.70476501,
        "ECCENTRICITY": 0.00025056,
        "INCLINATION": 57.1475,
        "RA_OF_ASC_NODE": 340.7222,
        "ARG_OF_PERICENTER": 195.3315,
        "MEAN_ANOMALY": 345.6811,
        "EPHEMERIS_TYPE": 0,
        "CLASSIFICATION_TYPE": "U",
        "NORAD_CAT_ID": 49809,
        "ELEMENT_SET_NO": 999,
        "REV_AT_EPOCH": 2878,
        "BSTAR": 0,
        "MEAN_MOTION_DOT": -1.07e-06,
        "MEAN_MOTION_DDOT": 0
    },
    {
        "OBJECT_NAME": "GSAT0224 (GALILEO 28)",
        "OBJECT_ID": "2021-116B",
        "EPOCH": "2026-07-19T22:53:39.367968",
        "MEAN_MOTION": 1.70476408,
        "ECCENTRICITY": 0.00019036,
        "INCLINATION": 57.1487,
        "RA_OF_ASC_NODE": 340.7887,
        "ARG_OF_PERICENTER": 182.1498,
        "MEAN_ANOMALY": 0.018,
        "EPHEMERIS_TYPE": 0,
        "CLASSIFICATION_TYPE": "U",
        "NORAD_CAT_ID": 49810,
        "ELEMENT_SET_NO": 999,
        "REV_AT_EPOCH": 2876,
        "BSTAR": 0,
        "MEAN_MOTION_DOT": -1.07e-06,
        "MEAN_MOTION_DDOT": 0
    }
]
